[{"OBJECT_NAME":"GAOFEN-11 03","OBJECT_ID":"2021-107A","EPOCH":"2026-03-09T22:48:17.334432","MEAN_MOTION":15.23762465,"ECCENTRICITY":0.00095153,"INCLINATION":97.2228,"RA_OF_ASC_NODE":116.8716,"ARG_OF_PERICENTER":54.6956,"MEAN_ANOMALY":305.517,"EPHEMERIS_TYPE":0,"CLASSIFICATION_TYPE":"U","NORAD_CAT_ID":49492,"ELEMENT_SET_NO":999,"REV_AT_EPOCH":23952,"BSTAR":0.00031083054,"MEAN_MOTION_DOT":7.418e-5,"MEAN_MOTION_DDOT":0},{"OBJECT_NAME":"SL-14 R\/B","OBJECT_ID":"2009-003B","EPOCH":"2026-03-09T22:56:16.948608","MEAN_MOTION":15.18255832,"ECCENTRICITY":0.00217716,"INCLINATION":82.3842,"RA_OF_ASC_NODE":305.4853,"ARG_OF_PERICENTER":18.7466,"MEAN_ANOMALY":341.4564,"EPHEMERIS_TYPE":0,"CLASSIFICATION_TYPE":"U","NORAD_CAT_ID":33505,"ELEMENT_SET_NO":999,"REV_AT_EPOCH":94237,"BSTAR":9.9679257e-5,"MEAN_MOTION_DOT":2.085e-5,"MEAN_MOTION_DDOT":0}]
